{
  "type": "FeatureCollection",
  "features": [
    {
      "type": "Feature",
      "properties": {
        "norad_id": 33376,
        "name": "GALAXY 19 (G-19)",
        "group": "intelsat",
        "lat": -0.034528479923142986,
        "lon": -123.00859962722443,
        "alt_km": 35773.11174227624,
        "timestamp": "2025-12-10T16:57:11.302273+00:00",
        "meta_object_name": "GALAXY 19 (G-19)",
        "meta_object_id": "2008-045A",
        "meta_epoch": "2025-12-10T05:39:38.657376",
        "meta_mean_motion": 1.00278274,
        "meta_eccentricity": 0.0003013,
        "meta_inclination": 0.0165,
        "meta_ra_of_asc_node": 336.653,
        "meta_arg_of_pericenter": 289.2299,
        "meta_mean_anomaly": 161.2678,
        "meta_ephemeris_type": 0,
        "meta_classification_type": "U",
        "meta_norad_cat_id": 33376,
        "meta_element_set_no": 999,
        "meta_rev_at_epoch": 6300,
        "meta_bstar": 0,
        "meta_mean_motion_dot": -1.37e-06,
        "meta_mean_motion_ddot": 0,
        "tle_line1": "1 33376U 08045A   25344.23586409 -.00000137  00000+0  00000+0 0  9994",
        "tle_line2": "2 33376   0.0165 336.6530 0003013 289.2299 161.2678  1.00278274 63001"
      },
      "geometry": {
        "type": "Point",
        "coordinates": [
          -123.00859962722443,
          -0.034528479923142986
        ]
      }
    },
    {
      "type": "Feature",
      "properties": {
        "norad_id": 35493,
        "name": "FM-5",
        "group": "intelsat",
        "lat": -0.02584951993980419,
        "lon": -112.16431362650233,
        "alt_km": 35785.71560694266,
        "timestamp": "2025-12-10T16:57:11.302285+00:00",
        "meta_object_name": "FM-5",
        "meta_object_id": "2009-034A",
        "meta_epoch": "2025-12-10T05:31:38.713152",
        "meta_mean_motion": 1.00270716,
        "meta_eccentricity": 6e-05,
        "meta_inclination": 0.0182,
        "meta_ra_of_asc_node": 290.0918,
        "meta_arg_of_pericenter": 243.8729,
        "meta_mean_anomaly": 262.0146,
        "meta_ephemeris_type": 0,
        "meta_classification_type": "U",
        "meta_norad_cat_id": 35493,
        "meta_element_set_no": 999,
        "meta_rev_at_epoch": 4474,
        "meta_bstar": 0,
        "meta_mean_motion_dot": -1.97e-06,
        "meta_mean_motion_ddot": 0,
        "tle_line1": "1 35493U 09034A   25344.23030918 -.00000197  00000+0  00000+0 0  9990",
        "tle_line2": "2 35493   0.0182 290.0918 0000600 243.8729 262.0146  1.00270716 44741"
      },
      "geometry": {
        "type": "Point",
        "coordinates": [
          -112.16431362650233,
          -0.02584951993980419
        ]
      }
    },
    {
      "type": "Feature",
      "properties": {
        "norad_id": 36097,
        "name": "INTELSAT 14 (IS-14)",
        "group": "intelsat",
        "lat": -0.024199916411913935,
        "lon": -71.01626229905422,
        "alt_km": 35776.20098191448,
        "timestamp": "2025-12-10T16:57:11.302296+00:00",
        "meta_object_name": "INTELSAT 14 (IS-14)",
        "meta_object_id": "2009-064A",
        "meta_epoch": "2025-12-09T20:12:25.276608",
        "meta_mean_motion": 1.00270287,
        "meta_eccentricity": 0.00026574,
        "meta_inclination": 0.0097,
        "meta_ra_of_asc_node": 353.7968,
        "meta_arg_of_pericenter": 272.7981,
        "meta_mean_anomaly": 70.3417,
        "meta_ephemeris_type": 0,
        "meta_classification_type": "U",
        "meta_norad_cat_id": 36097,
        "meta_element_set_no": 999,
        "meta_rev_at_epoch": 5870,
        "meta_bstar": 0,
        "meta_mean_motion_dot": -2.71e-06,
        "meta_mean_motion_ddot": 0,
        "tle_line1": "1 36097U 09064A   25343.84195922 -.00000271  00000+0  00000+0 0  9990",
        "tle_line2": "2 36097   0.0097 353.7968 0002657 272.7981  70.3417  1.00270287 58709"
      },
      "geometry": {
        "type": "Point",
        "coordinates": [
          -71.01626229905422,
          -0.024199916411913935
        ]
      }
    },
    {
      "type": "Feature",
      "properties": {
        "norad_id": 36106,
        "name": "INTELSAT 15 (IS-15)",
        "group": "intelsat",
        "lat": 0.03374191886369114,
        "lon": 59.130619240098305,
        "alt_km": 35795.48850683653,
        "timestamp": "2025-12-10T16:57:11.302308+00:00",
        "meta_object_name": "INTELSAT 15 (IS-15)",
        "meta_object_id": "2009-067A",
        "meta_epoch": "2025-12-10T12:54:39.223008",
        "meta_mean_motion": 1.00270744,
        "meta_eccentricity": 0.000243,
        "meta_inclination": 0.0255,
        "meta_ra_of_asc_node": 288.1112,
        "meta_arg_of_pericenter": 338.7778,
        "meta_mean_anomaly": 91.433,
        "meta_ephemeris_type": 0,
        "meta_classification_type": "U",
        "meta_norad_cat_id": 36106,
        "meta_element_set_no": 999,
        "meta_rev_at_epoch": 3933,
        "meta_bstar": 0,
        "meta_mean_motion_dot": -1.81e-06,
        "meta_mean_motion_ddot": 0,
        "tle_line1": "1 36106U 09067A   25344.53795397 -.00000181  00000+0  00000+0 0  9993",
        "tle_line2": "2 36106   0.0255 288.1112 0002430 338.7778  91.4330  1.00270744 39338"
      },
      "geometry": {
        "type": "Point",
        "coordinates": [
          59.130619240098305,
          0.03374191886369114
        ]
      }
    },
    {
      "type": "Feature",
      "properties": {
        "norad_id": 36131,
        "name": "DIRECTV 12",
        "group": "intelsat",
        "lat": 0.014736512743240924,
        "lon": -128.7519287382395,
        "alt_km": 35786.93248193913,
        "timestamp": "2025-12-10T16:57:11.302319+00:00",
        "meta_object_name": "DIRECTV 12",
        "meta_object_id": "2009-075A",
        "meta_epoch": "2025-12-10T08:12:19.207008",
        "meta_mean_motion": 1.00271691,
        "meta_eccentricity": 4.7e-05,
        "meta_inclination": 0.0407,
        "meta_ra_of_asc_node": 142.1952,
        "meta_arg_of_pericenter": 203.616,
        "meta_mean_anomaly": 113.8688,
        "meta_ephemeris_type": 0,
        "meta_classification_type": "U",
        "meta_norad_cat_id": 36131,
        "meta_element_set_no": 999,
        "meta_rev_at_epoch": 4466,
        "meta_bstar": 0,
        "meta_mean_motion_dot": -1e-06,
        "meta_mean_motion_ddot": 0,
        "tle_line1": "1 36131U 09075A   25344.34188897 -.00000100  00000+0  00000+0 0  9991",
        "tle_line2": "2 36131   0.0407 142.1952 0000470 203.6160 113.8688  1.00271691 44662"
      },
      "geometry": {
        "type": "Point",
        "coordinates": [
          -128.7519287382395,
          0.014736512743240924
        ]
      }
    },
    {
      "type": "Feature",
      "properties": {
        "norad_id": 36397,
        "name": "INTELSAT 16 (IS-16)",
        "group": "intelsat",
        "lat": -0.02680445927275036,
        "lon": -102.23806079517368,
        "alt_km": 35777.10483989707,
        "timestamp": "2025-12-10T16:57:11.302331+00:00",
        "meta_object_name": "INTELSAT 16 (IS-16)",
        "meta_object_id": "2010-006A",
        "meta_epoch": "2025-12-10T04:15:38.659392",
        "meta_mean_motion": 1.00270158,
        "meta_eccentricity": 0.00022535,
        "meta_inclination": 0.013,
        "meta_ra_of_asc_node": 313.914,
        "meta_arg_of_pericenter": 309.8505,
        "meta_mean_anomaly": 163.0994,
        "meta_ephemeris_type": 0,
        "meta_classification_type": "U",
        "meta_norad_cat_id": 36397,
        "meta_element_set_no": 999,
        "meta_rev_at_epoch": 5775,
        "meta_bstar": 0,
        "meta_mean_motion_dot": -2.41e-06,
        "meta_mean_motion_ddot": 0,
        "tle_line1": "1 36397U 10006A   25344.17753078 -.00000241  00000+0  00000+0 0  9997",
        "tle_line2": "2 36397   0.0130 313.9140 0002253 309.8505 163.0994  1.00270158 57757"
      },
      "geometry": {
        "type": "Point",
        "coordinates": [
          -102.23806079517368,
          -0.02680445927275036
        ]
      }
    },
    {
      "type": "Feature",
      "properties": {
        "norad_id": 37185,
        "name": "XM-5",
        "group": "intelsat",
        "lat": -0.06251008412213498,
        "lon": -141.21410096724944,
        "alt_km": 35784.43002468257,
        "timestamp": "2025-12-10T16:57:11.302342+00:00",
        "meta_object_name": "XM-5",
        "meta_object_id": "2010-053A",
        "meta_epoch": "2025-12-10T08:42:38.903328",
        "meta_mean_motion": 1.00269378,
        "meta_eccentricity": 0.0001518,
        "meta_inclination": 0.0613,
        "meta_ra_of_asc_node": 272.7492,
        "meta_arg_of_pericenter": 237.5376,
        "meta_mean_anomaly": 304.5158,
        "meta_ephemeris_type": 0,
        "meta_classification_type": "U",
        "meta_norad_cat_id": 37185,
        "meta_element_set_no": 999,
        "meta_rev_at_epoch": 5559,
        "meta_bstar": 0,
        "meta_mean_motion_dot": -1.9e-07,
        "meta_mean_motion_ddot": 0,
        "tle_line1": "1 37185U 10053A   25344.36295027 -.00000019  00000+0  00000+0 0  9994",
        "tle_line2": "2 37185   0.0613 272.7492 0001518 237.5376 304.5158  1.00269378 55593"
      },
      "geometry": {
        "type": "Point",
        "coordinates": [
          -141.21410096724944,
          -0.06251008412213498
        ]
      }
    }
  ]
}